[
  {
    "name": "STARLINK-37386",
    "noradId": "68898",
    "line1": "1 68898U 26097D   26168.51465294  .00013048  00000+0  40576-3 0  9992",
    "line2": "2 68898  97.2842   3.9799 0001849  92.2894 267.8561 15.33446043  7539"
  },
  {
    "name": "STARLINK-37514",
    "noradId": "68899",
    "line1": "1 68899U 26097E   26168.52280749  .00012472  00000+0  38793-3 0  9992",
    "line2": "2 68899  97.2852   3.9705 0001501  92.7153 267.4262 15.33451226  7539"
  },
  {
    "name": "STARLINK-36961",
    "noradId": "68900",
    "line1": "1 68900U 26097F   26168.50649562  .00023619  00000+0  73143-3 0  9998",
    "line2": "2 68900  97.2847   3.9918 0001859  82.9183 277.2271 15.33453073  7533"
  },
  {
    "name": "STARLINK-37360",
    "noradId": "68901",
    "line1": "1 68901U 26097G   26168.53912068  .00013891  00000+0  43170-3 0  9994",
    "line2": "2 68901  97.2847   4.1013 0001231 110.6155 249.5220 15.33453726  7547"
  },
  {
    "name": "STARLINK-37564",
    "noradId": "68902",
    "line1": "1 68902U 26097H   26168.55543594  .00006926  00000+0  21665-3 0  9997",
    "line2": "2 68902  97.2851   4.0785 0001627  84.7731 275.3697 15.33447645  7546"
  },
  {
    "name": "STARLINK-37567",
    "noradId": "68903",
    "line1": "1 68903U 26097J   26168.51193259  .00012120  00000+0  37705-3 0  9998",
    "line2": "2 68903  97.2842   3.9847 0001797  89.8558 270.2890 15.33452668  7534"
  },
  {
    "name": "STARLINK-37528",
    "noradId": "68904",
    "line1": "1 68904U 26097K   26168.55271579  .00011707  00000+0  36424-3 0  9992",
    "line2": "2 68904  97.2832   4.0809 0002252  97.2914 262.8585 15.33456932  7547"
  },
  {
    "name": "STARLINK-37494",
    "noradId": "68905",
    "line1": "1 68905U 26097L   26168.50377592  .00018177  00000+0  56396-3 0  9998",
    "line2": "2 68905  97.2844   3.9961 0001631  80.1996 279.9431 15.33446984  7533"
  },
  {
    "name": "STARLINK-37541",
    "noradId": "68906",
    "line1": "1 68906U 26097M   26168.52826120  .00013320  00000+0  41416-3 0  9999",
    "line2": "2 68906  97.2854   3.9627 0001645  91.9587 268.1844 15.33447329  7537"
  },
  {
    "name": "STARLINK-37551",
    "noradId": "68907",
    "line1": "1 68907U 26097N   26168.52553280  .00012519  00000+0  38911-3 0  9999",
    "line2": "2 68907  97.2848   3.9661 0001969 100.6071 259.5394 15.33472448  7538"
  },
  {
    "name": "STARLINK-37566",
    "noradId": "68908",
    "line1": "1 68908U 26097P   26168.52008853  .00020415  00000+0  63311-3 0  9997",
    "line2": "2 68908  97.2845   3.9740 0001820  89.5274 270.6177 15.33437026  7536"
  },
  {
    "name": "STARLINK-37544",
    "noradId": "68909",
    "line1": "1 68909U 26097Q   26168.51737003  .00012134  00000+0  37748-3 0  9997",
    "line2": "2 68909  97.2844   3.9770 0001650  92.0573 268.0859 15.33452449  7535"
  },
  {
    "name": "STARLINK-37493",
    "noradId": "68910",
    "line1": "1 68910U 26097R   26168.50921501  .00011859  00000+0  36903-3 0  9991",
    "line2": "2 68910  97.2849   3.9887 0001566  86.7429 273.3993 15.33449016  7531"
  },
  {
    "name": "STARLINK-37543",
    "noradId": "68911",
    "line1": "1 68911U 26097S   26168.49561851  .00014464  00000+0  44929-3 0  9990",
    "line2": "2 68911  97.2844   4.0068 0002241  97.9227 262.2271 15.33457949  7531"
  },
  {
    "name": "STARLINK-37477",
    "noradId": "68912",
    "line1": "1 68912U 26097T   26168.55000685  .00015377  00000+0  47775-3 0  9997",
    "line2": "2 68912  97.2847   4.0855 0002039  90.3319 269.8158 15.33437238  7540"
  },
  {
    "name": "STARLINK-37504",
    "noradId": "68913",
    "line1": "1 68913U 26097U   26168.50105855  .00023956  00000+0  74185-3 0  9995",
    "line2": "2 68913  97.2845   4.0001 0001963  76.3628 283.7833 15.33451000  7531"
  },
  {
    "name": "STARLINK-37540",
    "noradId": "68914",
    "line1": "1 68914U 26097V   26168.55815441  .00008249  00000+0  25752-3 0  9994",
    "line2": "2 68914  97.2850   4.0737 0001630  90.7268 269.4161 15.33448571  7540"
  },
  {
    "name": "STARLINK-37516",
    "noradId": "68915",
    "line1": "1 68915U 26097W   26168.53640470  .00011917  00000+0  37075-3 0  9998",
    "line2": "2 68915  97.2847   4.1061 0001829  95.6987 264.4464 15.33453952  7540"
  },
  {
    "name": "STARLINK-37507",
    "noradId": "68916",
    "line1": "1 68916U 26097X   26168.54455934  .00013192  00000+0  41005-3 0  9994",
    "line2": "2 68916  97.2833   4.0950 0002413 102.5212 257.6301 15.33458501  7540"
  },
  {
    "name": "STARLINK-37542",
    "noradId": "68917",
    "line1": "1 68917U 26097Y   26168.54184071  .00018996  00000+0  58899-3 0  9992",
    "line2": "2 68917  97.2838   4.0975 0002535 115.7732 244.3772 15.33456359  7545"
  },
  {
    "name": "STARLINK-37529",
    "noradId": "68918",
    "line1": "1 68918U 26097Z   26168.53368515  .00015612  00000+0  48492-3 0  9999",
    "line2": "2 68918  97.2851   4.1084 0001521  96.2994 263.8422 15.33445067  7542"
  },
  {
    "name": "STARLINK-37258",
    "noradId": "68951",
    "line1": "1 68951U 26099A   26168.29047571  .00023053  00000+0  69042-3 0  9999",
    "line2": "2 68951  53.1591 161.1341 0000645  90.5564 269.5512 15.34440492  7289"
  },
  {
    "name": "STARLINK-37308",
    "noradId": "68952",
    "line1": "1 68952U 26099B   26168.28838823  .00028475  00000+0  85042-3 0  9998",
    "line2": "2 68952  53.1594 161.1402 0001212  33.5291 326.5788 15.34410249  7282"
  },
  {
    "name": "STARLINK-37337",
    "noradId": "68953",
    "line1": "1 68953U 26099C   26168.91668981  .00044785  00000+0  13299-2 0  9991",
    "line2": "2 68953  53.1589 158.1819 0001276  98.0107 146.2790 15.34371955  6028"
  },
  {
    "name": "STARLINK-37301",
    "noradId": "68954",
    "line1": "1 68954U 26099D   26168.93343668  .00019937  00000+0  59941-3 0  9992",
    "line2": "2 68954  53.1582 158.0542 0001215  38.4024 321.7065 15.34411945  7382"
  },
  {
    "name": "STARLINK-36794",
    "noradId": "68955",
    "line1": "1 68955U 26099E   26168.15390790  .00026942  00000+0  80542-3 0  9990",
    "line2": "2 68955  53.1599 161.7069 0001142  89.8758 270.2376 15.34409065  7269"
  },
  {
    "name": "STARLINK-36760",
    "noradId": "68956",
    "line1": "1 68956U 26099F   26168.14969979  .00015360  00000+0  46467-3 0  9991",
    "line2": "2 68956  53.1589 161.6803 0001405  87.0080 273.1083 15.34408072  7268"
  },
  {
    "name": "STARLINK-37047",
    "noradId": "68957",
    "line1": "1 68957U 26099G   26168.15169501  .00016361  00000+0  47869-3 0  9995",
    "line2": "2 68957  53.1595 161.7099 0001676  65.5746 294.5432 15.35415216  7268"
  },
  {
    "name": "STARLINK-36242",
    "noradId": "68958",
    "line1": "1 68958U 26099H   26168.14549061  .00013922  00000+0  42230-3 0  9995",
    "line2": "2 68958  53.1591 161.6529 0001218  97.2004 262.9137 15.34407997  7260"
  },
  {
    "name": "STARLINK-37033",
    "noradId": "68959",
    "line1": "1 68959U 26099J   26168.14338828  .00021718  00000+0  65186-3 0  9990",
    "line2": "2 68959  53.1577 161.6557 0001202  89.9293 270.1848 15.34409193  7267"
  },
  {
    "name": "STARLINK-36978",
    "noradId": "68960",
    "line1": "1 68960U 26099K   26168.46697136 -.00278726  00000+0 -84609-2 0  9992",
    "line2": "2 68960  53.1597 160.1166 0001171  86.3040 273.8097 15.34717104  7313"
  },
  {
    "name": "STARLINK-36965",
    "noradId": "68961",
    "line1": "1 68961U 26099L   26168.13918205  .00015148  00000+0  45852-3 0  9993",
    "line2": "2 68961  53.1595 161.6305 0001933 127.0017 233.1163 15.34401240  7264"
  },
  {
    "name": "STARLINK-36765",
    "noradId": "68962",
    "line1": "1 68962U 26099M   26168.13707938  .00013806  00000+0  41867-3 0  9994",
    "line2": "2 68962  53.1593 161.5963 0002036  77.2828 282.8402 15.34424545  7263"
  },
  {
    "name": "STARLINK-36764",
    "noradId": "68963",
    "line1": "1 68963U 26099N   26168.91668981  .00050977  00000+0  15105-2 0  9990",
    "line2": "2 68963  53.1596 157.9270 0001269 124.4384 236.0594 15.34383121  6071"
  },
  {
    "name": "STARLINK-36731",
    "noradId": "68964",
    "line1": "1 68964U 26099P   26168.13286659  .00014791  00000+0  44792-3 0  9992",
    "line2": "2 68964  53.1581 161.5675 0001098  99.0641 261.0486 15.34407479  7262"
  },
  {
    "name": "STARLINK-36664",
    "noradId": "68965",
    "line1": "1 68965U 26099Q   26168.97753045  .00023600  00000+0  70726-3 0  9998",
    "line2": "2 68965  53.1585 157.5917 0001333 110.8059 249.3087 15.34407171  7397"
  },
  {
    "name": "STARLINK-36402",
    "noradId": "68966",
    "line1": "1 68966U 26099R   26168.25890545  .00011157  00000+0  34108-3 0  9995",
    "line2": "2 68966  53.1593 160.9389 0001327  87.5293 272.5862 15.34379906  7282"
  },
  {
    "name": "STARLINK-36671",
    "noradId": "68967",
    "line1": "1 68967U 26099S   26168.94606438  .00016179  00000+0  50196-3 0  9992",
    "line2": "2 68967  53.1597 157.3896 0001446  79.2232 280.8933 15.33564951  7391"
  },
  {
    "name": "STARLINK-36665",
    "noradId": "68968",
    "line1": "1 68968U 26099T   26168.97121912  .00022419  00000+0  67251-3 0  9999",
    "line2": "2 68968  53.1595 157.5531 0001255 104.7291 255.3851 15.34407141  7399"
  },
  {
    "name": "STARLINK-36303",
    "noradId": "68969",
    "line1": "1 68969U 26099U   26168.29290100  .00014723  00000+0  45785-3 0  9998",
    "line2": "2 68969  53.1596 160.4224 0002632  56.1070 304.0182 15.33566159  7290"
  },
  {
    "name": "STARLINK-37257",
    "noradId": "68970",
    "line1": "1 68970U 26099V   26168.96891651  .00027944  00000+0  80807-3 0  9995",
    "line2": "2 68970  53.1596 157.5459 0001241  96.4365 263.6779 15.35436922  7397"
  },
  {
    "name": "STARLINK-37367",
    "noradId": "68971",
    "line1": "1 68971U 26099W   26168.96490949  .00025146  00000+0  75270-3 0  9991",
    "line2": "2 68971  53.1598 157.5263 0000695  64.8918 295.2157 15.34407116  7391"
  }
]